[{"OBJECT_NAME":"ONEWEB-0468","OBJECT_ID":"2022-012AG","EPOCH":"2026-03-09T22:15:37.940544","MEAN_MOTION":13.10375649,"ECCENTRICITY":0.00017373,"INCLINATION":87.8776,"RA_OF_ASC_NODE":56.0394,"ARG_OF_PERICENTER":96.236,"MEAN_ANOMALY":263.8966,"EPHEMERIS_TYPE":0,"CLASSIFICATION_TYPE":"U","NORAD_CAT_ID":51652,"ELEMENT_SET_NO":999,"REV_AT_EPOCH":19630,"BSTAR":-0.0003174139,"MEAN_MOTION_DOT":-9.8e-7,"MEAN_MOTION_DDOT":0},{"OBJECT_NAME":"SL-14 DEB","OBJECT_ID":"1991-056AN","EPOCH":"2026-03-09T14:50:34.988064","MEAN_MOTION":12.9430526,"ECCENTRICITY":0.0127698,"INCLINATION":82.551,"RA_OF_ASC_NODE":274.3045,"ARG_OF_PERICENTER":347.8365,"MEAN_ANOMALY":11.9669,"EPHEMERIS_TYPE":0,"CLASSIFICATION_TYPE":"U","NORAD_CAT_ID":45300,"ELEMENT_SET_NO":999,"REV_AT_EPOCH":28493,"BSTAR":0.0016606,"MEAN_MOTION_DOT":4.89e-6,"MEAN_MOTION_DDOT":0}]
